CCSDS_OMM_VERS = 2.0
CREATION_DATE  = 
ORIGINATOR     = 

OBJECT_NAME    = DELTA 2 R/B(1)
OBJECT_ID      = 1990-008B
CENTER_NAME    = EARTH
REF_FRAME      = TEME
TIME_SYSTEM    = UTC
MEAN_ELEMENT_THEORY = SGP/SGP4

EPOCH          = 2026-01-17T01:16:31.108512
MEAN_MOTION    = 15.48774226
ECCENTRICITY   = .01018252
INCLINATION    = 35.6041
RA_OF_ASC_NODE = 151.8998
ARG_OF_PERICENTER = 141.0161
MEAN_ANOMALY   = 219.7967

EPHEMERIS_TYPE = 0
CLASSIFICATION_TYPE = U
NORAD_CAT_ID   = 20453
ELEMENT_SET_NO = 999
REV_AT_EPOCH   = 91810
BSTAR          = .76075752E-3
MEAN_MOTION_DOT = .52345E-3
MEAN_MOTION_DDOT = 0

CCSDS_OMM_VERS = 2.0
CREATION_DATE  = 
ORIGINATOR     = 

OBJECT_NAME    = COSMOS 2058
OBJECT_ID      = 1990-010A
CENTER_NAME    = EARTH
REF_FRAME      = TEME
TIME_SYSTEM    = UTC
MEAN_ELEMENT_THEORY = SGP/SGP4

EPOCH          = 2026-01-17T04:41:19.822848
MEAN_MOTION    = 15.10821771
ECCENTRICITY   = .00106212
INCLINATION    = 82.4684
RA_OF_ASC_NODE = 98.1526
ARG_OF_PERICENTER = 145.7609
MEAN_ANOMALY   = 214.4308

EPHEMERIS_TYPE = 0
CLASSIFICATION_TYPE = U
NORAD_CAT_ID   = 20465
ELEMENT_SET_NO = 999
REV_AT_EPOCH   = 93446
BSTAR          = .17695303E-3
MEAN_MOTION_DOT = .2972E-4
MEAN_MOTION_DDOT = 0

CCSDS_OMM_VERS = 2.0
CREATION_DATE  = 
ORIGINATOR     = 

OBJECT_NAME    = SL-14 R/B
OBJECT_ID      = 1990-010B
CENTER_NAME    = EARTH
REF_FRAME      = TEME
TIME_SYSTEM    = UTC
MEAN_ELEMENT_THEORY = SGP/SGP4

EPOCH          = 2026-01-17T07:00:08.361216
MEAN_MOTION    = 14.83511035
ECCENTRICITY   = .00213294
INCLINATION    = 82.5044
RA_OF_ASC_NODE = 315.6599
ARG_OF_PERICENTER = 107.7289
MEAN_ANOMALY   = 252.6257

EPHEMERIS_TYPE = 0
CLASSIFICATION_TYPE = U
NORAD_CAT_ID   = 20466
ELEMENT_SET_NO = 999
REV_AT_EPOCH   = 92086
BSTAR          = .4753722E-4
MEAN_MOTION_DOT = .417E-5
MEAN_MOTION_DDOT = 0

CCSDS_OMM_VERS = 2.0
CREATION_DATE  = 
ORIGINATOR     = 

OBJECT_NAME    = SL-14 R/B
OBJECT_ID      = 1990-018B
CENTER_NAME    = EARTH
REF_FRAME      = TEME
TIME_SYSTEM    = UTC
MEAN_ELEMENT_THEORY = SGP/SGP4

EPOCH          = 2026-01-17T02:59:57.494400
MEAN_MOTION    = 14.82087286
ECCENTRICITY   = .00148925
INCLINATION    = 82.5211
RA_OF_ASC_NODE = 271.2951
ARG_OF_PERICENTER = 261.3835
MEAN_ANOMALY   = 98.5692

EPHEMERIS_TYPE = 0
CLASSIFICATION_TYPE = U
NORAD_CAT_ID   = 20511
ELEMENT_SET_NO = 999
REV_AT_EPOCH   = 91494
BSTAR          = .40920174E-4
MEAN_MOTION_DOT = .349E-5
MEAN_MOTION_DDOT = 0

CCSDS_OMM_VERS = 2.0
CREATION_DATE  = 
ORIGINATOR     = 

OBJECT_NAME    = HST
OBJECT_ID      = 1990-037B
CENTER_NAME    = EARTH
REF_FRAME      = TEME
TIME_SYSTEM    = UTC
MEAN_ELEMENT_THEORY = SGP/SGP4

EPOCH          = 2026-01-17T07:34:16.023936
MEAN_MOTION    = 15.28565513
ECCENTRICITY   = .00017475
INCLINATION    = 28.4678
RA_OF_ASC_NODE = 30.2374
ARG_OF_PERICENTER = 254.1050
MEAN_ANOMALY   = 105.9352

EPHEMERIS_TYPE = 0
CLASSIFICATION_TYPE = U
NORAD_CAT_ID   = 20580
ELEMENT_SET_NO = 999
REV_AT_EPOCH   = 76544
BSTAR          = .23621946E-3
MEAN_MOTION_DOT = .6983E-4
MEAN_MOTION_DDOT = 0

CCSDS_OMM_VERS = 2.0
CREATION_DATE  = 
ORIGINATOR     = 

OBJECT_NAME    = SL-16 R/B
OBJECT_ID      = 1990-046B
CENTER_NAME    = EARTH
REF_FRAME      = TEME
TIME_SYSTEM    = UTC
MEAN_ELEMENT_THEORY = SGP/SGP4

EPOCH          = 2026-01-17T07:18:00.019296
MEAN_MOTION    = 14.15007912
ECCENTRICITY   = .00135629
INCLINATION    = 70.9995
RA_OF_ASC_NODE = 45.8313
ARG_OF_PERICENTER = 12.4439
MEAN_ANOMALY   = 347.7016

EPHEMERIS_TYPE = 0
CLASSIFICATION_TYPE = U
NORAD_CAT_ID   = 20625
ELEMENT_SET_NO = 999
REV_AT_EPOCH   = 84112
BSTAR          = .13121918E-4
MEAN_MOTION_DOT = -.22E-6
MEAN_MOTION_DDOT = 0

CCSDS_OMM_VERS = 2.0
CREATION_DATE  = 
ORIGINATOR     = 

OBJECT_NAME    = COSMOS 2084
OBJECT_ID      = 1990-055A
CENTER_NAME    = EARTH
REF_FRAME      = TEME
TIME_SYSTEM    = UTC
MEAN_ELEMENT_THEORY = SGP/SGP4

EPOCH          = 2026-01-17T02:41:03.401952
MEAN_MOTION    = 15.05264975
ECCENTRICITY   = .00257108
INCLINATION    = 62.7898
RA_OF_ASC_NODE = 151.4451
ARG_OF_PERICENTER = 180.0409
MEAN_ANOMALY   = 180.0694

EPHEMERIS_TYPE = 0
CLASSIFICATION_TYPE = U
NORAD_CAT_ID   = 20663
ELEMENT_SET_NO = 999
REV_AT_EPOCH   = 92855
BSTAR          = .20814555E-3
MEAN_MOTION_DOT = .2806E-4
MEAN_MOTION_DDOT = 0

CCSDS_OMM_VERS = 2.0
CREATION_DATE  = 
ORIGINATOR     = 

OBJECT_NAME    = SL-6 R/B(2)
OBJECT_ID      = 1990-055D
CENTER_NAME    = EARTH
REF_FRAME      = TEME
TIME_SYSTEM    = UTC
MEAN_ELEMENT_THEORY = SGP/SGP4

EPOCH          = 2026-01-17T06:59:08.347776
MEAN_MOTION    = 15.03272982
ECCENTRICITY   = .00172663
INCLINATION    = 62.7822
RA_OF_ASC_NODE = 68.5997
ARG_OF_PERICENTER = 329.8128
MEAN_ANOMALY   = 30.1974

EPHEMERIS_TYPE = 0
CLASSIFICATION_TYPE = U
NORAD_CAT_ID   = 20666
ELEMENT_SET_NO = 999
REV_AT_EPOCH   = 93046
BSTAR          = .13341294E-3
MEAN_MOTION_DOT = .1622E-4
MEAN_MOTION_DDOT = 0

CCSDS_OMM_VERS = 2.0
CREATION_DATE  = 
ORIGINATOR     = 

OBJECT_NAME    = SL-8 R/B
OBJECT_ID      = 1990-078B
CENTER_NAME    = EARTH
REF_FRAME      = TEME
TIME_SYSTEM    = UTC
MEAN_ELEMENT_THEORY = SGP/SGP4

EPOCH          = 2026-01-17T06:31:31.886112
MEAN_MOTION    = 14.87143968
ECCENTRICITY   = .03688463
INCLINATION    = 82.9064
RA_OF_ASC_NODE = 297.4798
ARG_OF_PERICENTER = 186.2932
MEAN_ANOMALY   = 173.3595

EPHEMERIS_TYPE = 0
CLASSIFICATION_TYPE = U
NORAD_CAT_ID   = 20775
ELEMENT_SET_NO = 999
REV_AT_EPOCH   = 80165
BSTAR          = .50143124E-3
MEAN_MOTION_DOT = .16594E-3
MEAN_MOTION_DDOT = 0

CCSDS_OMM_VERS = 2.0
CREATION_DATE  = 
ORIGINATOR     = 

OBJECT_NAME    = SL-8 R/B
OBJECT_ID      = 1991-006B
CENTER_NAME    = EARTH
REF_FRAME      = TEME
TIME_SYSTEM    = UTC
MEAN_ELEMENT_THEORY = SGP/SGP4

EPOCH          = 2026-01-17T07:01:27.252192
MEAN_MOTION    = 13.77491958
ECCENTRICITY   = .00225019
INCLINATION    = 82.9407
RA_OF_ASC_NODE = 208.2656
ARG_OF_PERICENTER = 176.2475
MEAN_ANOMALY   = 356.3991

EPHEMERIS_TYPE = 0
CLASSIFICATION_TYPE = U
NORAD_CAT_ID   = 21088
ELEMENT_SET_NO = 999
REV_AT_EPOCH   = 75699
BSTAR          = -.41742994E-4
MEAN_MOTION_DOT = -.26E-6
MEAN_MOTION_DDOT = 0

CCSDS_OMM_VERS = 2.0
CREATION_DATE  = 
ORIGINATOR     = 

OBJECT_NAME    = OKEAN-3
OBJECT_ID      = 1991-039A
CENTER_NAME    = EARTH
REF_FRAME      = TEME
TIME_SYSTEM    = UTC
MEAN_ELEMENT_THEORY = SGP/SGP4

EPOCH          = 2026-01-17T06:29:46.486752
MEAN_MOTION    = 15.04357181
ECCENTRICITY   = .00157516
INCLINATION    = 82.5150
RA_OF_ASC_NODE = 26.6439
ARG_OF_PERICENTER = 139.8075
MEAN_ANOMALY   = 220.4320

EPHEMERIS_TYPE = 0
CLASSIFICATION_TYPE = U
NORAD_CAT_ID   = 21397
ELEMENT_SET_NO = 999
REV_AT_EPOCH   = 85730
BSTAR          = .16330393E-3
MEAN_MOTION_DOT = .2311E-4
MEAN_MOTION_DDOT = 0

CCSDS_OMM_VERS = 2.0
CREATION_DATE  = 
ORIGINATOR     = 

OBJECT_NAME    = COSMOS 2151
OBJECT_ID      = 1991-042A
CENTER_NAME    = EARTH
REF_FRAME      = TEME
TIME_SYSTEM    = UTC
MEAN_ELEMENT_THEORY = SGP/SGP4

EPOCH          = 2026-01-17T07:37:27.602112
MEAN_MOTION    = 14.99857013
ECCENTRICITY   = .00115373
INCLINATION    = 82.4984
RA_OF_ASC_NODE = 133.2163
ARG_OF_PERICENTER = 228.8258
MEAN_ANOMALY   = 131.1972

EPHEMERIS_TYPE = 0
CLASSIFICATION_TYPE = U
NORAD_CAT_ID   = 21422
ELEMENT_SET_NO = 999
REV_AT_EPOCH   = 85549
BSTAR          = .14993264E-3
MEAN_MOTION_DOT = .1885E-4
MEAN_MOTION_DDOT = 0

