DELTA 2 R/B(1)          
1 20453U 90008B   26017.05313783  .00052345  00000+0  76076-3 0  9994
2 20453  35.6041 151.8998 0101825 141.0161 219.7967 15.48774226918103
COSMOS 2058             
1 20465U 90010A   26017.19536832  .00002972  00000+0  17695-3 0  9990
2 20465  82.4684  98.1526 0010621 145.7609 214.4308 15.10821771934465
SL-14 R/B               
1 20466U 90010B   26017.29176344  .00000417  00000+0  47537-4 0  9991
2 20466  82.5044 315.6599 0021329 107.7289 252.6257 14.83511035920867
SL-14 R/B               
1 20511U 90018B   26017.12497100  .00000349  00000+0  40920-4 0  9991
2 20511  82.5211 271.2951 0014892 261.3835  98.5692 14.82087286914941
HST                     
1 20580U 90037B   26017.31546324  .00006983  00000+0  23622-3 0  9991
2 20580  28.4678  30.2374 0001747 254.1050 105.9352 15.28565513765449
SL-16 R/B               
1 20625U 90046B   26017.30416689 -.00000022  00000+0  13122-4 0  9994
2 20625  70.9995  45.8313 0013562  12.4439 347.7016 14.15007912841124
COSMOS 2084             
1 20663U 90055A   26017.11184493  .00002806  00000+0  20815-3 0  9997
2 20663  62.7898 151.4451 0025710 180.0409 180.0694 15.05264975928558
SL-6 R/B(2)             
1 20666U 90055D   26017.29106884  .00001622  00000+0  13341-3 0  9998
2 20666  62.7822  68.5997 0017266 329.8128  30.1974 15.03272982930463
SL-8 R/B                
1 20775U 90078B   26017.27189683  .00016594  00000+0  50143-3 0  9995
2 20775  82.9064 297.4798 0368846 186.2932 173.3595 14.87143968801658
SL-8 R/B                
1 21088U 91006B   26017.29267653 -.00000026  00000+0 -41743-4 0  9993
2 21088  82.9407 208.2656 0022501 176.2475 356.3991 13.77491958756998
OKEAN-3                 
1 21397U 91039A   26017.27067693  .00002311  00000+0  16330-3 0  9992
2 21397  82.5150  26.6439 0015751 139.8075 220.4320 15.04357181857308
COSMOS 2151             
1 21422U 91042A   26017.31768058  .00001885  00000+0  14993-3 0  9991
2 21422  82.4984 133.2163 0011537 228.8258 131.1972 14.99857013855491
